{
  "norad_id": 65364,
  "name": "STARLINK-34729",
  "history": [
    {
      "epoch": "2026-03-28T16:20:20.433120Z",
      "apogee_km": 476.91948724867234,
      "perigee_km": 473.32152705741555,
      "latitude_deg": -4.486705096917367e-05,
      "longitude_deg": 8.723173466079087,
      "height_km": 475.81407763682614,
      "semi_major_axis_km": 6853.257507153044,
      "eccentricity": 0.0002625,
      "inclination_deg": 53.1591,
      "raan_deg": 79.9061,
      "arg_perigee_deg": 83.5377,
      "mean_anomaly_deg": 276.5922,
      "mean_motion_rev_day": 15.30231671
    },
    {
      "epoch": "2026-03-29T04:52:44.644800Z",
      "apogee_km": 475.88754474522193,
      "perigee_km": 474.2893725682643,
      "latitude_deg": 6.310497623035418e-06,
      "longitude_deg": 177.68052766080214,
      "height_km": 476.1910189960449,
      "semi_major_axis_km": 6853.225458656743,
      "eccentricity": 0.0001166,
      "inclination_deg": 53.1575,
      "raan_deg": 77.4793,
      "arg_perigee_deg": 104.8315,
      "mean_anomaly_deg": 255.2815,
      "mean_motion_rev_day": 15.30242405
    },
    {
      "epoch": "2026-03-30T04:23:32.211744Z",
      "apogee_km": 475.9731397980686,
      "perigee_km": 474.4516962272701,
      "latitude_deg": 8.333337855610525e-06,
      "longitude_deg": 179.46468083772595,
      "height_km": 475.4128545469478,
      "semi_major_axis_km": 6853.349418012669,
      "eccentricity": 0.000111,
      "inclination_deg": 53.1578,
      "raan_deg": 72.9273,
      "arg_perigee_deg": 23.3336,
      "mean_anomaly_deg": 336.7715,
      "mean_motion_rev_day": 15.30200888
    },
    {
      "epoch": "2026-03-30T05:57:35.337888Z",
      "apogee_km": 476.22677761335126,
      "perigee_km": 474.15844273700077,
      "latitude_deg": -2.1053847584154243e-05,
      "longitude_deg": 155.58475704024022,
      "height_km": 476.2618117834149,
      "semi_major_axis_km": 6853.329610175176,
      "eccentricity": 0.0001509,
      "inclination_deg": 53.1579,
      "raan_deg": 72.6248,
      "arg_perigee_deg": 99.5542,
      "mean_anomaly_deg": 260.5629,
      "mean_motion_rev_day": 15.30207522
    },
    {
      "epoch": "2026-03-30T23:12:11.166624Z",
      "apogee_km": 476.3788902720371,
      "perigee_km": 474.04272107203906,
      "latitude_deg": -2.3472992113835704e-05,
      "longitude_deg": -107.10998691493846,
      "height_km": 476.36486687145157,
      "semi_major_axis_km": 6853.347805672038,
      "eccentricity": 0.00017044,
      "inclination_deg": 53.1577,
      "raan_deg": 69.2875,
      "arg_perigee_deg": 102.6992,
      "mean_anomaly_deg": 257.4199,
      "mean_motion_rev_day": 15.30201428
    },
    {
      "epoch": "2026-03-31T05:28:24.028032Z",
      "apogee_km": 476.0120382492296,
      "perigee_km": 474.4001319556137,
      "latitude_deg": -1.0365522894394965e-05,
      "longitude_deg": 157.36342443299804,
      "height_km": 476.1610249611814,
      "semi_major_axis_km": 6853.343085102421,
      "eccentricity": 0.0001176,
      "inclination_deg": 53.1577,
      "raan_deg": 68.072,
      "arg_perigee_deg": 94.054,
      "mean_anomaly_deg": 266.0595,
      "mean_motion_rev_day": 15.30203009
    },
    {
      "epoch": "2026-04-01T04:59:12.115968Z",
      "apogee_km": 475.9805445239126,
      "perigee_km": 474.41675039587517,
      "latitude_deg": 1.9506625153003118e-05,
      "longitude_deg": 159.14802234086028,
      "height_km": 476.01872486984155,
      "semi_major_axis_km": 6853.335647459893,
      "eccentricity": 0.00011409,
      "inclination_deg": 53.1576,
      "raan_deg": 63.5226,
      "arg_perigee_deg": 84.2804,
      "mean_anomaly_deg": 275.8327,
      "mean_motion_rev_day": 15.302055
    },
    {
      "epoch": "2026-04-02T07:38:05.472960Z",
      "apogee_km": 475.96821051337065,
      "perigee_km": 474.4807569369441,
      "latitude_deg": 1.5112116918412887e-05,
      "longitude_deg": 113.17329863836099,
      "height_km": 476.1707092517104,
      "semi_major_axis_km": 6853.361483725157,
      "eccentricity": 0.00010852,
      "inclination_deg": 53.1589,
      "raan_deg": 58.3646,
      "arg_perigee_deg": 93.7019,
      "mean_anomaly_deg": 266.4106,
      "mean_motion_rev_day": 15.30196847
    }
  ]
}